[{"OBJECT_NAME":"STARLINK-35286","OBJECT_ID":"2025-218N","EPOCH":"2026-03-09T14:32:37.590432","MEAN_MOTION":15.0564936,"ECCENTRICITY":0.0002899,"INCLINATION":97.6012,"RA_OF_ASC_NODE":292.8177,"ARG_OF_PERICENTER":85.3734,"MEAN_ANOMALY":274.7823,"EPHEMERIS_TYPE":0,"CLASSIFICATION_TYPE":"U","NORAD_CAT_ID":65803,"ELEMENT_SET_NO":999,"REV_AT_EPOCH":2495,"BSTAR":0.00044313,"MEAN_MOTION_DOT":6.339e-5,"MEAN_MOTION_DDOT":0},{"OBJECT_NAME":"UNKNOWN","OBJECT_ID":"","EPOCH":"2026-03-09T02:53:57.432768","MEAN_MOTION":15.04852502,"ECCENTRICITY":0.0007482,"INCLINATION":86.6587,"RA_OF_ASC_NODE":118.2618,"ARG_OF_PERICENTER":183.1315,"MEAN_ANOMALY":176.9875,"EPHEMERIS_TYPE":0,"CLASSIFICATION_TYPE":"U","NORAD_CAT_ID":82402,"ELEMENT_SET_NO":999,"REV_AT_EPOCH":46745,"BSTAR":0.00051144,"MEAN_MOTION_DOT":7.26e-5,"MEAN_MOTION_DDOT":0}]
